{"type": "FeatureCollection", "features": [ {"type": "Feature", "properties": {"norad_id": 39122, "name": "EUTELSAT 117 WEST A", "group": "eutelsat", "lat": -0.010834661057886002, "lon": -153.9490266029934, "alt_km": 35780.22682506859, "timestamp": "2025-12-15T15:53:19.549625+00:00", "meta": {"OBJECT_NAME": "EUTELSAT 117 WEST A", "OBJECT_ID": "2013-012A", "EPOCH": "2025-12-14T21:25:15.215808", "MEAN_MOTION": 1.00272234, "ECCENTRICITY": 0.00028179, "INCLINATION": 0.0198, "RA_OF_ASC_NODE": 29.1225, "ARG_OF_PERICENTER": 238.4725, "MEAN_ANOMALY": 20.7175, "EPHEMERIS_TYPE": 0, "CLASSIFICATION_TYPE": "U", "NORAD_CAT_ID": 39122, "ELEMENT_SET_NO": 999, "REV_AT_EPOCH": 4658, "BSTAR": 0, "MEAN_MOTION_DOT": 7e-08, "MEAN_MOTION_DDOT": 0}, "tle": {"line1": "1 39122U 13012A   25348.89253722  .00000007  00000+0  00000+0 0  9999", "line2": "2 39122   0.0198  29.1225 0002817 238.4725  20.7175  1.00272234 46583"}}, "geometry": {"type": "Point", "coordinates": [-153.9490266029934, -0.010834661057886002]}}, {"type": "Feature", "properties": {"norad_id": 39163, "name": "EUTELSAT 7B", "group": "eutelsat", "lat": -0.0660703735889525, "lon": -30.0913794316224, "alt_km": 35766.09940437193, "timestamp": "2025-12-15T15:53:19.549635+00:00", "meta": {"OBJECT_NAME": "EUTELSAT 7B", "OBJECT_ID": "2013-022A", "EPOCH": "2025-12-14T22:09:38.644416", "MEAN_MOTION": 1.00273897, "ECCENTRICITY": 0.00046765, "INCLINATION": 0.0764, "RA_OF_ASC_NODE": 25.1173, "ARG_OF_PERICENTER": 294.6964, "MEAN_ANOMALY": 103.4419, "EPHEMERIS_TYPE": 0, "CLASSIFICATION_TYPE": "U", "NORAD_CAT_ID": 39163, "ELEMENT_SET_NO": 999, "REV_AT_EPOCH": 4610, "BSTAR": 0, "MEAN_MOTION_DOT": 6.8e-07, "MEAN_MOTION_DDOT": 0}, "tle": {"line1": "1 39163U 13022A   25348.92336394  .00000068  00000+0  00000+0 0  9993", "line2": "2 39163   0.0764  25.1173 0004676 294.6964 103.4419  1.00273897 46103"}}, "geometry": {"type": "Point", "coordinates": [-30.0913794316224, -0.0660703735889525]}}, {"type": "Feature", "properties": {"norad_id": 39612, "name": "EXPRESS-AT1", "group": "eutelsat", "lat": 0.02548534112100228, "lon": 18.880727502992904, "alt_km": 35785.83580416999, "timestamp": "2025-12-15T15:53:19.549646+00:00", "meta": {"OBJECT_NAME": "EXPRESS-AT1", "OBJECT_ID": "2014-010A", "EPOCH": "2025-12-14T10:15:41.842368", "MEAN_MOTION": 1.00273481, "ECCENTRICITY": 3.134e-05, "INCLINATION": 0.0196, "RA_OF_ASC_NODE": 344.8805, "ARG_OF_PERICENTER": 139.4475, "MEAN_ANOMALY": 168.9348, "EPHEMERIS_TYPE": 0, "CLASSIFICATION_TYPE": "U", "NORAD_CAT_ID": 39612, "ELEMENT_SET_NO": 999, "REV_AT_EPOCH": 4296, "BSTAR": 0, "MEAN_MOTION_DOT": 0, "MEAN_MOTION_DDOT": 0}, "tle": {"line1": "1 39612U 14010A   25348.42756762  .00000000  00000+0  00000+0 0  9996", "line2": "2 39612   0.0196 344.8805 0000313 139.4475 168.9348  1.00273481 42967"}}, "geometry": {"type": "Point", "coordinates": [18.880727502992904, 0.02548534112100228]}}, {"type": "Feature", "properties": {"norad_id": 39613, "name": "EXPRESS-AT2", "group": "eutelsat", "lat": 0.012846207816031404, "lon": 102.73749372857142, "alt_km": 35790.57087750881, "timestamp": "2025-12-15T15:53:19.549657+00:00", "meta": {"OBJECT_NAME": "EXPRESS-AT2", "OBJECT_ID": "2014-010B", "EPOCH": "2025-12-15T03:46:33.450240", "MEAN_MOTION": 1.00273059, "ECCENTRICITY": 0.0001184, "INCLINATION": 0.0156, "RA_OF_ASC_NODE": 287.4019, "ARG_OF_PERICENTER": 12.0254, "MEAN_ANOMALY": 341.1258, "EPHEMERIS_TYPE": 0, "CLASSIFICATION_TYPE": "U", "NORAD_CAT_ID": 39613, "ELEMENT_SET_NO": 999, "REV_AT_EPOCH": 4265, "BSTAR": 0, "MEAN_MOTION_DOT": -2.6e-06, "MEAN_MOTION_DDOT": 0}, "tle": {"line1": "1 39613U 14010B   25349.15733160 -.00000260  00000+0  00000+0 0  9994", "line2": "2 39613   0.0156 287.4019 0001184  12.0254 341.1258  1.00273059 42653"}}, "geometry": {"type": "Point", "coordinates": [102.73749372857142, 0.012846207816031404]}}, {"type": "Feature", "properties": {"norad_id": 39773, "name": "EUTELSAT 3B", "group": "eutelsat", "lat": -0.03335408030889092, "lon": -33.977476375558744, "alt_km": 35787.6796689652, "timestamp": "2025-12-15T15:53:19.549667+00:00", "meta": {"OBJECT_NAME": "EUTELSAT 3B", "OBJECT_ID": "2014-030A", "EPOCH": "2025-12-14T22:09:38.644416", "MEAN_MOTION": 1.00271327, "ECCENTRICITY": 0.00043919, "INCLINATION": 0.0603, "RA_OF_ASC_NODE": 354.1693, "ARG_OF_PERICENTER": 236.938, "MEAN_ANOMALY": 188.2286, "EPHEMERIS_TYPE": 0, "CLASSIFICATION_TYPE": "U", "NORAD_CAT_ID": 39773, "ELEMENT_SET_NO": 999, "REV_AT_EPOCH": 4221, "BSTAR": 0, "MEAN_MOTION_DOT": 4e-07, "MEAN_MOTION_DDOT": 0}, "tle": {"line1": "1 39773U 14030A   25348.92336394  .00000040  00000+0  00000+0 0  9990", "line2": "2 39773   0.0603 354.1693 0004391 236.9380 188.2286  1.00271327 42216"}}, "geometry": {"type": "Point", "coordinates": [-33.977476375558744, -0.03335408030889092]}}, {"type": "Feature", "properties": {"norad_id": 40425, "name": "EUTELSAT 115 WEST B", "group": "eutelsat", "lat": -0.018671013855267652, "lon": -152.0210001367992, "alt_km": 35786.69005616769, "timestamp": "2025-12-15T15:53:19.549678+00:00", "meta": {"OBJECT_NAME": "EUTELSAT 115 WEST B", "OBJECT_ID": "2015-010B", "EPOCH": "2025-12-14T09:56:38.487840", "MEAN_MOTION": 1.00269432, "ECCENTRICITY": 1.048e-05, "INCLINATION": 0.0412, "RA_OF_ASC_NODE": 162.7061, "ARG_OF_PERICENTER": 133.9502, "MEAN_ANOMALY": 180.944, "EPHEMERIS_TYPE": 0, "CLASSIFICATION_TYPE": "U", "NORAD_CAT_ID": 40425, "ELEMENT_SET_NO": 999, "REV_AT_EPOCH": 3954, "BSTAR": 0, "MEAN_MOTION_DOT": -6e-08, "MEAN_MOTION_DDOT": 0}, "tle": {"line1": "1 40425U 15010B   25348.41433435 -.00000006  00000+0  00000+0 0  9996", "line2": "2 40425   0.0412 162.7061 0000104 133.9502 180.9440  1.00269432 39549"}}, "geometry": {"type": "Point", "coordinates": [-152.0210001367992, -0.018671013855267652]}}, {"type": "Feature", "properties": {"norad_id": 40875, "name": "EUTELSAT 8 WEST B", "group": "eutelsat", "lat": -0.06611114263139595, "lon": -45.06517465798513, "alt_km": 35774.60782460219, "timestamp": "2025-12-15T15:53:19.549689+00:00", "meta": {"OBJECT_NAME": "EUTELSAT 8 WEST B", "OBJECT_ID": "2015-039B", "EPOCH": "2025-12-14T21:56:27.227328", "MEAN_MOTION": 1.00271775, "ECCENTRICITY": 0.00042539, "INCLINATION": 0.0671, "RA_OF_ASC_NODE": 13.0435, "ARG_OF_PERICENTER": 251.5034, "MEAN_ANOMALY": 140.406, "EPHEMERIS_TYPE": 0, "CLASSIFICATION_TYPE": "U", "NORAD_CAT_ID": 40875, "ELEMENT_SET_NO": 999, "REV_AT_EPOCH": 3780, "BSTAR": 0, "MEAN_MOTION_DOT": -4.6e-07, "MEAN_MOTION_DDOT": 0}, "tle": {"line1": "1 40875U 15039B   25348.91420402 -.00000046  00000+0  00000+0 0  9995", "line2": "2 40875   0.0671  13.0435 0004253 251.5034 140.4060  1.00271775 37803"}}, "geometry": {"type": "Point", "coordinates": [-45.06517465798513, -0.06611114263139595]}}, {"type": "Feature", "properties": {"norad_id": 41310, "name": "EUTELSAT 9B", "group": "eutelsat", "lat": -0.04824615623559056, "lon": -28.080242010237697, "alt_km": 35776.63732741519, "timestamp": "2025-12-15T15:53:19.549699+00:00", "meta": {"OBJECT_NAME": "EUTELSAT 9B", "OBJECT_ID": "2016-005A", "EPOCH": "2025-12-14T22:09:38.644416", "MEAN_MOTION": 1.00270953, "ECCENTRICITY": 0.00045537, "INCLINATION": 0.0503, "RA_OF_ASC_NODE": 67.4635, "ARG_OF_PERICENTER": 204.5009, "MEAN_ANOMALY": 153.2743, "EPHEMERIS_TYPE": 0, "CLASSIFICATION_TYPE": "U", "NORAD_CAT_ID": 41310, "ELEMENT_SET_NO": 999, "REV_AT_EPOCH": 3626, "BSTAR": 0, "MEAN_MOTION_DOT": 8.1e-07, "MEAN_MOTION_DDOT": 0}, "tle": {"line1": "1 41310U 16005A   25348.92336394  .00000081  00000+0  00000+0 0  9999", "line2": "2 41310   0.0503  67.4635 0004553 204.5009 153.2743  1.00270953 36266"}}, "geometry": {"type": "Point", "coordinates": [-28.080242010237697, -0.04824615623559056]}}, {"type": "Feature", "properties": {"norad_id": 41382, "name": "EUTELSAT 65 WEST A", "group": "eutelsat", "lat": -0.06658889262100984, "lon": -102.32491104362843, "alt_km": 35776.39894327122, "timestamp": "2025-12-15T15:53:19.549709+00:00", "meta": {"OBJECT_NAME": "EUTELSAT 65 WEST A", "OBJECT_ID": "2016-014A", "EPOCH": "2025-12-14T21:40:06.293568", "MEAN_MOTION": 1.00271321, "ECCENTRICITY": 0.00024202, "INCLINATION": 0.0541, "RA_OF_ASC_NODE": 19.4099, "ARG_OF_PERICENTER": 253.2025, "MEAN_ANOMALY": 71.0289, "EPHEMERIS_TYPE": 0, "CLASSIFICATION_TYPE": "U", "NORAD_CAT_ID": 41382, "ELEMENT_SET_NO": 999, "REV_AT_EPOCH": 3568, "BSTAR": 0, "MEAN_MOTION_DOT": -2.56e-06, "MEAN_MOTION_DDOT": 0}, "tle": {"line1": "1 41382U 16014A   25348.90285062 -.00000256  00000+0  00000+0 0  9996", "line2": "2 41382   0.0541  19.4099 0002420 253.2025  71.0289  1.00271321 35685"}}, "geometry": {"type": "Point", "coordinates": [-102.32491104362843, -0.06658889262100984]}}, {"type": "Feature", "properties": {"norad_id": 41589, "name": "EUTELSAT 117 WEST B", "group": "eutelsat", "lat": 0.010028040635020403, "lon": -154.11743055191542, "alt_km": 35786.242105895406, "timestamp": "2025-12-15T15:53:19.549720+00:00", "meta": {"OBJECT_NAME": "EUTELSAT 117 WEST B", "OBJECT_ID": "2016-038B", "EPOCH": "2025-12-14T21:25:22.704096", "MEAN_MOTION": 1.00268448, "ECCENTRICITY": 1.882e-05, "INCLINATION": 0.0096, "RA_OF_ASC_NODE": 155.7449, "ARG_OF_PERICENTER": 30.2857, "MEAN_ANOMALY": 102.1261, "EPHEMERIS_TYPE": 0, "CLASSIFICATION_TYPE": "U", "NORAD_CAT_ID": 41589, "ELEMENT_SET_NO": 999, "REV_AT_EPOCH": 3481, "BSTAR": 0, "MEAN_MOTION_DOT": 9e-08, "MEAN_MOTION_DDOT": 0}, "tle": {"line1": "1 41589U 16038B   25348.89262389  .00000009  00000+0  00000+0 0  9991", "line2": "2 41589   0.0096 155.7449 0000188  30.2857 102.1261  1.00268448 34813"}}, "geometry": {"type": "Point", "coordinates": [-154.11743055191542, 0.010028040635020403]}}]}